{"type": "FeatureCollection", "features": [ {"type": "Feature", "properties": {"norad_id": 42741, "name": "EUTELSAT 172B", "group": "eutelsat", "lat": 0.0031389838233723388, "lon": 144.84599458344704, "alt_km": 35787.264158172016, "timestamp": "2025-12-09T16:56:36.251771+00:00", "meta": {"OBJECT_NAME": "EUTELSAT 172B", "OBJECT_ID": "2017-029B", "EPOCH": "2025-12-09T12:37:00.988896", "MEAN_MOTION": 1.00269936, "ECCENTRICITY": 1.69e-05, "INCLINATION": 0.012, "RA_OF_ASC_NODE": 91.0922, "ARG_OF_PERICENTER": 213.9404, "MEAN_ANOMALY": 134.7439, "EPHEMERIS_TYPE": 0, "CLASSIFICATION_TYPE": "U", "NORAD_CAT_ID": 42741, "ELEMENT_SET_NO": 999, "REV_AT_EPOCH": 3182, "BSTAR": 0, "MEAN_MOTION_DOT": -4e-08, "MEAN_MOTION_DDOT": 0}, "tle": {"line1": "1 42741U 17029B   25343.52570589 -.00000004  00000+0  00000+0 0  9998", "line2": "2 42741   0.0120  91.0922 0000169 213.9404 134.7439  1.00269936 31826"}}, "geometry": {"type": "Point", "coordinates": [144.84599458344704, 0.0031389838233723388]}}, {"type": "Feature", "properties": {"norad_id": 44334, "name": "EUTELSAT 7C", "group": "eutelsat", "lat": 0.026834589923890807, "lon": -20.14023259540742, "alt_km": 35788.2398685402, "timestamp": "2025-12-09T16:56:36.251783+00:00", "meta": {"OBJECT_NAME": "EUTELSAT 7C", "OBJECT_ID": "2019-034B", "EPOCH": "2025-12-09T06:50:38.879808", "MEAN_MOTION": 1.00270496, "ECCENTRICITY": 0.000338, "INCLINATION": 0.073, "RA_OF_ASC_NODE": 179.5768, "ARG_OF_PERICENTER": 62.7682, "MEAN_ANOMALY": 305.5774, "EPHEMERIS_TYPE": 0, "CLASSIFICATION_TYPE": "U", "NORAD_CAT_ID": 44334, "ELEMENT_SET_NO": 999, "REV_AT_EPOCH": 493, "BSTAR": 0, "MEAN_MOTION_DOT": 5e-07, "MEAN_MOTION_DDOT": 0}, "tle": {"line1": "1 44334U 19034B   25343.28517222  .00000050  00000+0  00000+0 0  9994", "line2": "2 44334   0.0730 179.5768 0003380  62.7682 305.5774  1.00270496  4934"}}, "geometry": {"type": "Point", "coordinates": [-20.14023259540742, 0.026834589923890807]}}, {"type": "Feature", "properties": {"norad_id": 44624, "name": "EUTELSAT 5 WEST B", "group": "eutelsat", "lat": -0.01983401428719013, "lon": -32.122639983065596, "alt_km": 35780.87525300322, "timestamp": "2025-12-09T16:56:36.251795+00:00", "meta": {"OBJECT_NAME": "EUTELSAT 5 WEST B", "OBJECT_ID": "2019-067A", "EPOCH": "2025-12-09T04:59:20.915808", "MEAN_MOTION": 1.00271075, "ECCENTRICITY": 0.0003516, "INCLINATION": 0.0644, "RA_OF_ASC_NODE": 341.3724, "ARG_OF_PERICENTER": 277.7318, "MEAN_ANOMALY": 248.9352, "EPHEMERIS_TYPE": 0, "CLASSIFICATION_TYPE": "U", "NORAD_CAT_ID": 44624, "ELEMENT_SET_NO": 999, "REV_AT_EPOCH": 2253, "BSTAR": 0, "MEAN_MOTION_DOT": -4e-07, "MEAN_MOTION_DDOT": 0}, "tle": {"line1": "1 44624U 19067A   25343.20788097 -.00000040  00000+0  00000+0 0  9994", "line2": "2 44624   0.0644 341.3724 0003516 277.7318 248.9352  1.00271075 22538"}}, "geometry": {"type": "Point", "coordinates": [-32.122639983065596, -0.01983401428719013]}}, {"type": "Feature", "properties": {"norad_id": 45027, "name": "EUTELSAT KONNECT", "group": "eutelsat", "lat": -0.062222487977299866, "lon": -19.953268722291362, "alt_km": 35782.70178542487, "timestamp": "2025-12-09T16:56:36.251807+00:00", "meta": {"OBJECT_NAME": "EUTELSAT KONNECT", "OBJECT_ID": "2020-005B", "EPOCH": "2025-12-09T06:50:38.879808", "MEAN_MOTION": 1.00268405, "ECCENTRICITY": 0.000175, "INCLINATION": 0.0703, "RA_OF_ASC_NODE": 96.733, "ARG_OF_PERICENTER": 189.0908, "MEAN_ANOMALY": 262.3109, "EPHEMERIS_TYPE": 0, "CLASSIFICATION_TYPE": "U", "NORAD_CAT_ID": 45027, "ELEMENT_SET_NO": 999, "REV_AT_EPOCH": 2243, "BSTAR": 0, "MEAN_MOTION_DOT": 5.1e-07, "MEAN_MOTION_DDOT": 0}, "tle": {"line1": "1 45027U 20005B   25343.28517222  .00000051  00000+0  00000+0 0  9995", "line2": "2 45027   0.0703  96.7330 0001750 189.0908 262.3109  1.00268405 22436"}}, "geometry": {"type": "Point", "coordinates": [-19.953268722291362, -0.062222487977299866]}}, {"type": "Feature", "properties": {"norad_id": 49056, "name": "EUTELSAT QUANTUM", "group": "eutelsat", "lat": 0.010851835799536561, "lon": 20.57952877751462, "alt_km": 35791.56430980683, "timestamp": "2025-12-09T16:56:36.251819+00:00", "meta": {"OBJECT_NAME": "EUTELSAT QUANTUM", "OBJECT_ID": "2021-069B", "EPOCH": "2025-12-09T03:31:36.820416", "MEAN_MOTION": 1.00270774, "ECCENTRICITY": 0.00037625, "INCLINATION": 0.0132, "RA_OF_ASC_NODE": 12.1818, "ARG_OF_PERICENTER": 259.1599, "MEAN_ANOMALY": 267.4033, "EPHEMERIS_TYPE": 0, "CLASSIFICATION_TYPE": "U", "NORAD_CAT_ID": 49056, "ELEMENT_SET_NO": 999, "REV_AT_EPOCH": 1602, "BSTAR": 0, "MEAN_MOTION_DOT": 1.28e-06, "MEAN_MOTION_DDOT": 0}, "tle": {"line1": "1 49056U 21069B   25343.14695394  .00000128  00000+0  00000+0 0  9999", "line2": "2 49056   0.0132  12.1818 0003762 259.1599 267.4033  1.00270774 16023"}}, "geometry": {"type": "Point", "coordinates": [20.57952877751462, 0.010851835799536561]}}, {"type": "Feature", "properties": {"norad_id": 53765, "name": "EUTELSAT KONNECT VHTS", "group": "eutelsat", "lat": -0.05225905379753574, "lon": -24.42335125959259, "alt_km": 35787.72342509514, "timestamp": "2025-12-09T16:56:36.251830+00:00", "meta": {"OBJECT_NAME": "EUTELSAT KONNECT VHTS", "OBJECT_ID": "2022-110A", "EPOCH": "2025-12-09T06:50:38.879808", "MEAN_MOTION": 1.00270775, "ECCENTRICITY": 0.0002613, "INCLINATION": 0.0635, "RA_OF_ASC_NODE": 102.5978, "ARG_OF_PERICENTER": 135.651, "MEAN_ANOMALY": 305.3988, "EPHEMERIS_TYPE": 0, "CLASSIFICATION_TYPE": "U", "NORAD_CAT_ID": 53765, "ELEMENT_SET_NO": 999, "REV_AT_EPOCH": 492, "BSTAR": 0, "MEAN_MOTION_DOT": 1.9e-07, "MEAN_MOTION_DDOT": 0}, "tle": {"line1": "1 53765U 22110A   25343.28517222  .00000019  00000+0  00000+0 0  9996", "line2": "2 53765   0.0635 102.5978 0002613 135.6510 305.3988  1.00270775  4927"}}, "geometry": {"type": "Point", "coordinates": [-24.42335125959259, -0.05225905379753574]}}, {"type": "Feature", "properties": {"norad_id": 54048, "name": "EUTELSAT HOTBIRD 13F", "group": "eutelsat", "lat": 0.040278503759346745, "lon": -14.145048380792367, "alt_km": 35777.0440424818, "timestamp": "2025-12-09T16:56:36.251842+00:00", "meta": {"OBJECT_NAME": "EUTELSAT HOTBIRD 13F", "OBJECT_ID": "2022-134A", "EPOCH": "2025-12-09T01:39:02.259360", "MEAN_MOTION": 1.00271707, "ECCENTRICITY": 0.0002159, "INCLINATION": 0.0489, "RA_OF_ASC_NODE": 292.5872, "ARG_OF_PERICENTER": 60.3329, "MEAN_ANOMALY": 122.9214, "EPHEMERIS_TYPE": 0, "CLASSIFICATION_TYPE": "U", "NORAD_CAT_ID": 54048, "ELEMENT_SET_NO": 999, "REV_AT_EPOCH": 1147, "BSTAR": 0, "MEAN_MOTION_DOT": 8.9e-07, "MEAN_MOTION_DDOT": 0}, "tle": {"line1": "1 54048U 22134A   25343.06877615  .00000089  00000+0  00000+0 0  9995", "line2": "2 54048   0.0489 292.5872 0002159  60.3329 122.9214  1.00271707 11478"}}, "geometry": {"type": "Point", "coordinates": [-14.145048380792367, 0.040278503759346745]}}, {"type": "Feature", "properties": {"norad_id": 54225, "name": "EUTELSAT HOTBIRD 13G", "group": "eutelsat", "lat": 0.041357139968043195, "lon": -14.163639371737077, "alt_km": 35793.16977429394, "timestamp": "2025-12-09T16:56:36.251871+00:00", "meta": {"OBJECT_NAME": "EUTELSAT HOTBIRD 13G", "OBJECT_ID": "2022-146A", "EPOCH": "2025-12-09T00:10:38.547840", "MEAN_MOTION": 1.00269396, "ECCENTRICITY": 0.00016652, "INCLINATION": 0.0487, "RA_OF_ASC_NODE": 236.9876, "ARG_OF_PERICENTER": 310.6292, "MEAN_ANOMALY": 266.0423, "EPHEMERIS_TYPE": 0, "CLASSIFICATION_TYPE": "U", "NORAD_CAT_ID": 54225, "ELEMENT_SET_NO": 999, "REV_AT_EPOCH": 555, "BSTAR": 0, "MEAN_MOTION_DOT": 8.9e-07, "MEAN_MOTION_DDOT": 0}, "tle": {"line1": "1 54225U 22146A   25343.00739060  .00000089  00000+0  00000+0 0  9990", "line2": "2 54225   0.0487 236.9876 0001665 310.6292 266.0423  1.00269396  5555"}}, "geometry": {"type": "Point", "coordinates": [-14.163639371737077, 0.041357139968043195]}}, {"type": "Feature", "properties": {"norad_id": 54259, "name": "EUTELSAT 10B", "group": "eutelsat", "lat": -0.053250368223931206, "lon": -17.186689111276383, "alt_km": 35793.76909891681, "timestamp": "2025-12-09T16:56:36.251883+00:00", "meta": {"OBJECT_NAME": "EUTELSAT 10B", "OBJECT_ID": "2022-157A", "EPOCH": "2025-12-09T06:50:38.879808", "MEAN_MOTION": 1.00265933, "ECCENTRICITY": 0.0001494, "INCLINATION": 0.0614, "RA_OF_ASC_NODE": 98.4433, "ARG_OF_PERICENTER": 78.8034, "MEAN_ANOMALY": 13.6704, "EPHEMERIS_TYPE": 0, "CLASSIFICATION_TYPE": "U", "NORAD_CAT_ID": 54259, "ELEMENT_SET_NO": 999, "REV_AT_EPOCH": 1112, "BSTAR": 0, "MEAN_MOTION_DOT": 7e-07, "MEAN_MOTION_DDOT": 0}, "tle": {"line1": "1 54259U 22157A   25343.28517222  .00000070  00000+0  00000+0 0  9993", "line2": "2 54259   0.0614  98.4433 0001494  78.8034  13.6704  1.00265933 11122"}}, "geometry": {"type": "Point", "coordinates": [-17.186689111276383, -0.053250368223931206]}}, {"type": "Feature", "properties": {"norad_id": 59346, "name": "EUTELSAT 36D", "group": "eutelsat", "lat": 0.01511578904287232, "lon": 8.697035350273387, "alt_km": 35785.60436768313, "timestamp": "2025-12-09T16:56:36.251895+00:00", "meta": {"OBJECT_NAME": "EUTELSAT 36D", "OBJECT_ID": "2024-059A", "EPOCH": "2025-12-09T10:18:56.403072", "MEAN_MOTION": 1.0026861, "ECCENTRICITY": 4.49e-05, "INCLINATION": 0.0177, "RA_OF_ASC_NODE": 347.0483, "ARG_OF_PERICENTER": 336.6605, "MEAN_ANOMALY": 305.3028, "EPHEMERIS_TYPE": 0, "CLASSIFICATION_TYPE": "U", "NORAD_CAT_ID": 59346, "ELEMENT_SET_NO": 999, "REV_AT_EPOCH": 624, "BSTAR": 0, "MEAN_MOTION_DOT": 0, "MEAN_MOTION_DDOT": 0}, "tle": {"line1": "1 59346U 24059A   25343.42981948  .00000000  00000+0  00000+0 0  9997", "line2": "2 59346   0.0177 347.0483 0000449 336.6605 305.3028  1.00268610  6246"}}, "geometry": {"type": "Point", "coordinates": [8.697035350273387, 0.01511578904287232]}}]}